[{"OBJECT_NAME":"STARLINK-35965","OBJECT_ID":"2025-271Q","EPOCH":"2026-03-09T12:23:46.654944","MEAN_MOTION":15.30231015,"ECCENTRICITY":0.00015725,"INCLINATION":53.1595,"RA_OF_ASC_NODE":140.4931,"ARG_OF_PERICENTER":73.2754,"MEAN_ANOMALY":286.8419,"EPHEMERIS_TYPE":0,"CLASSIFICATION_TYPE":"U","NORAD_CAT_ID":66631,"ELEMENT_SET_NO":999,"REV_AT_EPOCH":1754,"BSTAR":0.00087008254,"MEAN_MOTION_DOT":0.00025523,"MEAN_MOTION_DDOT":0},{"OBJECT_NAME":"CZ-4B DEB","OBJECT_ID":"2010-051E","EPOCH":"2026-03-08T22:01:50.125728","MEAN_MOTION":15.23766972,"ECCENTRICITY":0.00561086,"INCLINATION":97.769,"RA_OF_ASC_NODE":240.5013,"ARG_OF_PERICENTER":301.1291,"MEAN_ANOMALY":58.4449,"EPHEMERIS_TYPE":0,"CLASSIFICATION_TYPE":"U","NORAD_CAT_ID":38184,"ELEMENT_SET_NO":999,"REV_AT_EPOCH":82066,"BSTAR":0.0024566319,"MEAN_MOTION_DOT":0.00062123,"MEAN_MOTION_DDOT":0}]
